[{"OBJECT_NAME":"KUIPER-00187","OBJECT_ID":"2025-301J","EPOCH":"2026-03-09T23:31:50.478240","MEAN_MOTION":14.79912825,"ECCENTRICITY":6.188e-5,"INCLINATION":51.9028,"RA_OF_ASC_NODE":79.3379,"ARG_OF_PERICENTER":81.4352,"MEAN_ANOMALY":278.6681,"EPHEMERIS_TYPE":0,"CLASSIFICATION_TYPE":"U","NORAD_CAT_ID":67141,"ELEMENT_SET_NO":999,"REV_AT_EPOCH":1356,"BSTAR":0.00060978293,"MEAN_MOTION_DOT":4.428e-5,"MEAN_MOTION_DDOT":0},{"OBJECT_NAME":"DELTA 1 DEB [YO]","OBJECT_ID":"1962-025C","EPOCH":"2026-03-09T06:59:27.829248","MEAN_MOTION":14.61649282,"ECCENTRICITY":0.01914532,"INCLINATION":58.2466,"RA_OF_ASC_NODE":31.0391,"ARG_OF_PERICENTER":170.2979,"MEAN_ANOMALY":190.1836,"EPHEMERIS_TYPE":0,"CLASSIFICATION_TYPE":"U","NORAD_CAT_ID":312,"ELEMENT_SET_NO":999,"REV_AT_EPOCH":34431,"BSTAR":0.00017996806,"MEAN_MOTION_DOT":9.52e-6,"MEAN_MOTION_DDOT":0}]
